{
  "type": "FeatureCollection",
  "features": [
    {
      "type": "Feature",
      "properties": {
        "name": "17/09/2026 14:04:11",
        "COORD": "-1,4512,39,1425",
        "DATE": "2026-09-17",
        "TIME": "14:04",
        "MXI": "-9,88 kA.",
        "STR": "0",
        "SMA": "0,183 Km.",
        "SMI": "0,17500004 Km.",
        "CHI": "0,7",
        "metvlc_time_utc": "2026-09-17T12:04:00+00:00",
        "metvlc_time_source": "date+time",
        "metvlc_has_real_time": true,
        "metvlc_captura_utc": "2026-09-17T18:14:25+00:00",
        "metvlc_last_seen_utc": "2026-09-18T09:47:08+00:00",
        "metvlc_fuente": "SIGIF/GVA Rayos 24h KMZ"
      },
      "geometry": {
        "type": "Point",
        "coordinates": [
          -1.4512,
          39.1425
        ]
      }
    },
    {
      "type": "Feature",
      "properties": {
        "name": "17/09/2026 14:07:27",
        "COORD": "-1,4589,39,1507",
        "DATE": "2026-09-17",
        "TIME": "14:07",
        "MXI": "36,46 kA.",
        "STR": "0",
        "SMA": "0,439 Km.",
        "SMI": "0,14000002 Km.",
        "CHI": "0,8",
        "metvlc_time_utc": "2026-09-17T12:07:00+00:00",
        "metvlc_time_source": "date+time",
        "metvlc_has_real_time": true,
        "metvlc_captura_utc": "2026-09-17T18:14:25+00:00",
        "metvlc_last_seen_utc": "2026-09-18T09:47:08+00:00",
        "metvlc_fuente": "SIGIF/GVA Rayos 24h KMZ"
      },
      "geometry": {
        "type": "Point",
        "coordinates": [
          -1.4589,
          39.1507
        ]
      }
    },
    {
      "type": "Feature",
      "properties": {
        "name": "17/09/2026 14:07:27",
        "COORD": "-1,4644,39,1711",
        "DATE": "2026-09-17",
        "TIME": "14:07",
        "MXI": "-14,57 kA.",
        "STR": "0",
        "SMA": "0,17 Km.",
        "SMI": "0,125 Km.",
        "CHI": "0,7",
        "metvlc_time_utc": "2026-09-17T12:07:00+00:00",
        "metvlc_time_source": "date+time",
        "metvlc_has_real_time": true,
        "metvlc_captura_utc": "2026-09-17T18:14:25+00:00",
        "metvlc_last_seen_utc": "2026-09-18T09:47:08+00:00",
        "metvlc_fuente": "SIGIF/GVA Rayos 24h KMZ"
      },
      "geometry": {
        "type": "Point",
        "coordinates": [
          -1.4644,
          39.1711
        ]
      }
    },
    {
      "type": "Feature",
      "properties": {
        "name": "17/09/2026 14:10:28",
        "COORD": "-1,4504,39,1531",
        "DATE": "2026-09-17",
        "TIME": "14:10",
        "MXI": "-17,95 kA.",
        "STR": "0",
        "SMA": "0,172 Km.",
        "SMI": "0,13 Km.",
        "CHI": "0,5",
        "metvlc_time_utc": "2026-09-17T12:10:00+00:00",
        "metvlc_time_source": "date+time",
        "metvlc_has_real_time": true,
        "metvlc_captura_utc": "2026-09-17T18:14:25+00:00",
        "metvlc_last_seen_utc": "2026-09-18T09:47:08+00:00",
        "metvlc_fuente": "SIGIF/GVA Rayos 24h KMZ"
      },
      "geometry": {
        "type": "Point",
        "coordinates": [
          -1.4504,
          39.1531
        ]
      }
    },
    {
      "type": "Feature",
      "properties": {
        "name": "17/09/2026 14:10:29",
        "COORD": "-1,4719,39,1657",
        "DATE": "2026-09-17",
        "TIME": "14:10",
        "MXI": "-12,16 kA.",
        "STR": "0",
        "SMA": "0,175 Km.",
        "SMI": "0,12000003 Km.",
        "CHI": "0,6",
        "metvlc_time_utc": "2026-09-17T12:10:00+00:00",
        "metvlc_time_source": "date+time",
        "metvlc_has_real_time": true,
        "metvlc_captura_utc": "2026-09-17T18:14:25+00:00",
        "metvlc_last_seen_utc": "2026-09-18T09:47:08+00:00",
        "metvlc_fuente": "SIGIF/GVA Rayos 24h KMZ"
      },
      "geometry": {
        "type": "Point",
        "coordinates": [
          -1.4719,
          39.1657
        ]
      }
    },
    {
      "type": "Feature",
      "properties": {
        "name": "17/09/2026 14:15:45",
        "COORD": "-1,4382,39,2217",
        "DATE": "2026-09-17",
        "TIME": "14:15",
        "MXI": "-27,8 kA.",
        "STR": "0",
        "SMA": "0,197 Km.",
        "SMI": "0,12999997 Km.",
        "CHI": "1,1",
        "metvlc_time_utc": "2026-09-17T12:15:00+00:00",
        "metvlc_time_source": "date+time",
        "metvlc_has_real_time": true,
        "metvlc_captura_utc": "2026-09-17T18:14:25+00:00",
        "metvlc_last_seen_utc": "2026-09-18T09:47:08+00:00",
        "metvlc_fuente": "SIGIF/GVA Rayos 24h KMZ"
      },
      "geometry": {
        "type": "Point",
        "coordinates": [
          -1.4382,
          39.2217
        ]
      }
    },
    {
      "type": "Feature",
      "properties": {
        "name": "17/09/2026 14:17:45",
        "COORD": "-1,4641,39,1486",
        "DATE": "2026-09-17",
        "TIME": "14:17",
        "MXI": "-30,95 kA.",
        "STR": "0",
        "SMA": "0,169 Km.",
        "SMI": "0,132 Km.",
        "CHI": "1",
        "metvlc_time_utc": "2026-09-17T12:17:00+00:00",
        "metvlc_time_source": "date+time",
        "metvlc_has_real_time": true,
        "metvlc_captura_utc": "2026-09-17T18:14:25+00:00",
        "metvlc_last_seen_utc": "2026-09-18T09:47:08+00:00",
        "metvlc_fuente": "SIGIF/GVA Rayos 24h KMZ"
      },
      "geometry": {
        "type": "Point",
        "coordinates": [
          -1.4641,
          39.1486
        ]
      }
    },
    {
      "type": "Feature",
      "properties": {
        "name": "17/09/2026 14:20:27",
        "COORD": "-1,4728,39,1469",
        "DATE": "2026-09-17",
        "TIME": "14:20",
        "MXI": "-19,57 kA.",
        "STR": "0",
        "SMA": "0,559 Km.",
        "SMI": "0,181 Km.",
        "CHI": "0,9",
        "metvlc_time_utc": "2026-09-17T12:20:00+00:00",
        "metvlc_time_source": "date+time",
        "metvlc_has_real_time": true,
        "metvlc_captura_utc": "2026-09-17T18:14:25+00:00",
        "metvlc_last_seen_utc": "2026-09-18T09:47:08+00:00",
        "metvlc_fuente": "SIGIF/GVA Rayos 24h KMZ"
      },
      "geometry": {
        "type": "Point",
        "coordinates": [
          -1.4728,
          39.1469
        ]
      }
    },
    {
      "type": "Feature",
      "properties": {
        "name": "17/09/2026 14:26:58",
        "COORD": "-1,4561,39,1483",
        "DATE": "2026-09-17",
        "TIME": "14:26",
        "MXI": "-40,69 kA.",
        "STR": "0",
        "SMA": "0,635 Km.",
        "SMI": "0,21999997 Km.",
        "CHI": "1,8",
        "metvlc_time_utc": "2026-09-17T12:26:00+00:00",
        "metvlc_time_source": "date+time",
        "metvlc_has_real_time": true,
        "metvlc_captura_utc": "2026-09-17T18:14:25+00:00",
        "metvlc_last_seen_utc": "2026-09-18T09:47:08+00:00",
        "metvlc_fuente": "SIGIF/GVA Rayos 24h KMZ"
      },
      "geometry": {
        "type": "Point",
        "coordinates": [
          -1.4561,
          39.1483
        ]
      }
    },
    {
      "type": "Feature",
      "properties": {
        "name": "17/09/2026 14:26:58",
        "COORD": "-1,4582,39,1465",
        "DATE": "2026-09-17",
        "TIME": "14:26",
        "MXI": "-37,33 kA.",
        "STR": "0",
        "SMA": "0,377 Km.",
        "SMI": "0,15000002 Km.",
        "CHI": "0,7",
        "metvlc_time_utc": "2026-09-17T12:26:00+00:00",
        "metvlc_time_source": "date+time",
        "metvlc_has_real_time": true,
        "metvlc_captura_utc": "2026-09-17T18:14:25+00:00",
        "metvlc_last_seen_utc": "2026-09-18T09:47:08+00:00",
        "metvlc_fuente": "SIGIF/GVA Rayos 24h KMZ"
      },
      "geometry": {
        "type": "Point",
        "coordinates": [
          -1.4582,
          39.1465
        ]
      }
    },
    {
      "type": "Feature",
      "properties": {
        "name": "17/09/2026 14:26:58",
        "COORD": "-1,4231,39,1718",
        "DATE": "2026-09-17",
        "TIME": "14:26",
        "MXI": "-11,57 kA.",
        "STR": "0",
        "SMA": "0,474 Km.",
        "SMI": "0,19600004 Km.",
        "CHI": "0,2",
        "metvlc_time_utc": "2026-09-17T12:26:00+00:00",
        "metvlc_time_source": "date+time",
        "metvlc_has_real_time": true,
        "metvlc_captura_utc": "2026-09-17T18:14:25+00:00",
        "metvlc_last_seen_utc": "2026-09-18T09:47:08+00:00",
        "metvlc_fuente": "SIGIF/GVA Rayos 24h KMZ"
      },
      "geometry": {
        "type": "Point",
        "coordinates": [
          -1.4231,
          39.1718
        ]
      }
    },
    {
      "type": "Feature",
      "properties": {
        "name": "17/09/2026 14:26:58",
        "COORD": "-1,4474,39,143",
        "DATE": "2026-09-17",
        "TIME": "14:26",
        "MXI": "-13,31 kA.",
        "STR": "0",
        "SMA": "0,515 Km.",
        "SMI": "0,21399999 Km.",
        "CHI": "0,6",
        "metvlc_time_utc": "2026-09-17T12:26:00+00:00",
        "metvlc_time_source": "date+time",
        "metvlc_has_real_time": true,
        "metvlc_captura_utc": "2026-09-17T18:14:25+00:00",
        "metvlc_last_seen_utc": "2026-09-18T09:47:08+00:00",
        "metvlc_fuente": "SIGIF/GVA Rayos 24h KMZ"
      },
      "geometry": {
        "type": "Point",
        "coordinates": [
          -1.4474,
          39.143
        ]
      }
    },
    {
      "type": "Feature",
      "properties": {
        "name": "17/09/2026 14:33:16",
        "COORD": "-1,3214,38,8927",
        "DATE": "2026-09-17",
        "TIME": "14:33",
        "MXI": "29,29 kA.",
        "STR": "0",
        "SMA": "1,781 Km.",
        "SMI": "0,325 Km.",
        "CHI": "3,1",
        "metvlc_time_utc": "2026-09-17T12:33:00+00:00",
        "metvlc_time_source": "date+time",
        "metvlc_has_real_time": true,
        "metvlc_captura_utc": "2026-09-17T18:14:25+00:00",
        "metvlc_last_seen_utc": "2026-09-18T09:47:08+00:00",
        "metvlc_fuente": "SIGIF/GVA Rayos 24h KMZ"
      },
      "geometry": {
        "type": "Point",
        "coordinates": [
          -1.3214,
          38.8927
        ]
      }
    },
    {
      "type": "Feature",
      "properties": {
        "name": "17/09/2026 14:41:52",
        "COORD": "-1,4301,38,967",
        "DATE": "2026-09-17",
        "TIME": "14:41",
        "MXI": "16,25 kA.",
        "STR": "0",
        "SMA": "0,797 Km.",
        "SMI": "0,22599997 Km.",
        "CHI": "0,4",
        "metvlc_time_utc": "2026-09-17T12:41:00+00:00",
        "metvlc_time_source": "date+time",
        "metvlc_has_real_time": true,
        "metvlc_captura_utc": "2026-09-17T18:14:25+00:00",
        "metvlc_last_seen_utc": "2026-09-18T09:47:08+00:00",
        "metvlc_fuente": "SIGIF/GVA Rayos 24h KMZ"
      },
      "geometry": {
        "type": "Point",
        "coordinates": [
          -1.4301,
          38.967
        ]
      }
    },
    {
      "type": "Feature",
      "properties": {
        "name": "17/09/2026 14:48:24",
        "COORD": "-1,3532,38,9604",
        "DATE": "2026-09-17",
        "TIME": "14:48",
        "MXI": "-85,95 kA.",
        "STR": "0",
        "SMA": "0,461 Km.",
        "SMI": "0,19599998 Km.",
        "CHI": "1,2",
        "metvlc_time_utc": "2026-09-17T12:48:00+00:00",
        "metvlc_time_source": "date+time",
        "metvlc_has_real_time": true,
        "metvlc_captura_utc": "2026-09-17T18:14:25+00:00",
        "metvlc_last_seen_utc": "2026-09-18T09:47:08+00:00",
        "metvlc_fuente": "SIGIF/GVA Rayos 24h KMZ"
      },
      "geometry": {
        "type": "Point",
        "coordinates": [
          -1.3532,
          38.9604
        ]
      }
    },
    {
      "type": "Feature",
      "properties": {
        "name": "17/09/2026 14:48:24",
        "COORD": "-1,3727,38,9531",
        "DATE": "2026-09-17",
        "TIME": "14:48",
        "MXI": "-21,46 kA.",
        "STR": "0",
        "SMA": "0,182 Km.",
        "SMI": "0,13700001 Km.",
        "CHI": "0,6",
        "metvlc_time_utc": "2026-09-17T12:48:00+00:00",
        "metvlc_time_source": "date+time",
        "metvlc_has_real_time": true,
        "metvlc_captura_utc": "2026-09-17T18:14:25+00:00",
        "metvlc_last_seen_utc": "2026-09-18T09:47:08+00:00",
        "metvlc_fuente": "SIGIF/GVA Rayos 24h KMZ"
      },
      "geometry": {
        "type": "Point",
        "coordinates": [
          -1.3727,
          38.9531
        ]
      }
    },
    {
      "type": "Feature",
      "properties": {
        "name": "17/09/2026 14:53:47",
        "COORD": "-1,3511,38,9544",
        "DATE": "2026-09-17",
        "TIME": "14:53",
        "MXI": "-47,11 kA.",
        "STR": "0",
        "SMA": "0,687 Km.",
        "SMI": "0,18399997 Km.",
        "CHI": "0,6",
        "metvlc_time_utc": "2026-09-17T12:53:00+00:00",
        "metvlc_time_source": "date+time",
        "metvlc_has_real_time": true,
        "metvlc_captura_utc": "2026-09-17T18:14:25+00:00",
        "metvlc_last_seen_utc": "2026-09-18T09:47:08+00:00",
        "metvlc_fuente": "SIGIF/GVA Rayos 24h KMZ"
      },
      "geometry": {
        "type": "Point",
        "coordinates": [
          -1.3511,
          38.9544
        ]
      }
    },
    {
      "type": "Feature",
      "properties": {
        "name": "17/09/2026 14:53:47",
        "COORD": "-1,3902,38,9803",
        "DATE": "2026-09-17",
        "TIME": "14:53",
        "MXI": "-9,48 kA.",
        "STR": "0",
        "SMA": "0,274 Km.",
        "SMI": "0,16 Km.",
        "CHI": "0,7",
        "metvlc_time_utc": "2026-09-17T12:53:00+00:00",
        "metvlc_time_source": "date+time",
        "metvlc_has_real_time": true,
        "metvlc_captura_utc": "2026-09-17T18:14:25+00:00",
        "metvlc_last_seen_utc": "2026-09-18T09:47:08+00:00",
        "metvlc_fuente": "SIGIF/GVA Rayos 24h KMZ"
      },
      "geometry": {
        "type": "Point",
        "coordinates": [
          -1.3902,
          38.9803
        ]
      }
    },
    {
      "type": "Feature",
      "properties": {
        "name": "17/09/2026 15:01:42",
        "COORD": "0,0303,38,811",
        "DATE": "2026-09-17",
        "TIME": "15:01",
        "MXI": "43,57 kA.",
        "STR": "0",
        "SMA": "0,225 Km.",
        "SMI": "0,11799998 Km.",
        "CHI": "1,3",
        "metvlc_time_utc": "2026-09-17T13:01:00+00:00",
        "metvlc_time_source": "date+time",
        "metvlc_has_real_time": true,
        "metvlc_captura_utc": "2026-09-17T18:14:25+00:00",
        "metvlc_last_seen_utc": "2026-09-18T09:47:08+00:00",
        "metvlc_fuente": "SIGIF/GVA Rayos 24h KMZ"
      },
      "geometry": {
        "type": "Point",
        "coordinates": [
          0.0303,
          38.811
        ]
      }
    },
    {
      "type": "Feature",
      "properties": {
        "name": "17/09/2026 15:01:42",
        "COORD": "0,0344,38,8077",
        "DATE": "2026-09-17",
        "TIME": "15:01",
        "MXI": "23,55 kA.",
        "STR": "0",
        "SMA": "0,347 Km.",
        "SMI": "0,14300002 Km.",
        "CHI": "0,6",
        "metvlc_time_utc": "2026-09-17T13:01:00+00:00",
        "metvlc_time_source": "date+time",
        "metvlc_has_real_time": true,
        "metvlc_captura_utc": "2026-09-17T18:14:25+00:00",
        "metvlc_last_seen_utc": "2026-09-18T09:47:08+00:00",
        "metvlc_fuente": "SIGIF/GVA Rayos 24h KMZ"
      },
      "geometry": {
        "type": "Point",
        "coordinates": [
          0.0344,
          38.8077
        ]
      }
    },
    {
      "type": "Feature",
      "properties": {
        "name": "17/09/2026 15:03:51",
        "COORD": "0,0415,38,8067",
        "DATE": "2026-09-17",
        "TIME": "15:03",
        "MXI": "39,59 kA.",
        "STR": "0",
        "SMA": "0,228 Km.",
        "SMI": "0,13499999 Km.",
        "CHI": "0,6",
        "metvlc_time_utc": "2026-09-17T13:03:00+00:00",
        "metvlc_time_source": "date+time",
        "metvlc_has_real_time": true,
        "metvlc_captura_utc": "2026-09-17T18:14:25+00:00",
        "metvlc_last_seen_utc": "2026-09-18T09:47:08+00:00",
        "metvlc_fuente": "SIGIF/GVA Rayos 24h KMZ"
      },
      "geometry": {
        "type": "Point",
        "coordinates": [
          0.0415,
          38.8067
        ]
      }
    },
    {
      "type": "Feature",
      "properties": {
        "name": "17/09/2026 15:03:51",
        "COORD": "-1,2818,38,9314",
        "DATE": "2026-09-17",
        "TIME": "15:03",
        "MXI": "-65,94 kA.",
        "STR": "0",
        "SMA": "0,17 Km.",
        "SMI": "0,11600002 Km.",
        "CHI": "1,3",
        "metvlc_time_utc": "2026-09-17T13:03:00+00:00",
        "metvlc_time_source": "date+time",
        "metvlc_has_real_time": true,
        "metvlc_captura_utc": "2026-09-17T18:14:25+00:00",
        "metvlc_last_seen_utc": "2026-09-18T09:47:08+00:00",
        "metvlc_fuente": "SIGIF/GVA Rayos 24h KMZ"
      },
      "geometry": {
        "type": "Point",
        "coordinates": [
          -1.2818,
          38.9314
        ]
      }
    },
    {
      "type": "Feature",
      "properties": {
        "name": "17/09/2026 15:03:51",
        "COORD": "-1,2639,38,92",
        "DATE": "2026-09-17",
        "TIME": "15:03",
        "MXI": "-16,87 kA.",
        "STR": "0",
        "SMA": "0,17 Km.",
        "SMI": "0,11200002 Km.",
        "CHI": "0,7",
        "metvlc_time_utc": "2026-09-17T13:03:00+00:00",
        "metvlc_time_source": "date+time",
        "metvlc_has_real_time": true,
        "metvlc_captura_utc": "2026-09-17T18:14:25+00:00",
        "metvlc_last_seen_utc": "2026-09-18T09:47:08+00:00",
        "metvlc_fuente": "SIGIF/GVA Rayos 24h KMZ"
      },
      "geometry": {
        "type": "Point",
        "coordinates": [
          -1.2639,
          38.92
        ]
      }
    },
    {
      "type": "Feature",
      "properties": {
        "name": "17/09/2026 15:07:18",
        "COORD": "-1,3129,38,9492",
        "DATE": "2026-09-17",
        "TIME": "15:07",
        "MXI": "-9,09 kA.",
        "STR": "0",
        "SMA": "0,224 Km.",
        "SMI": "0,15000004 Km.",
        "CHI": "0,4",
        "metvlc_time_utc": "2026-09-17T13:07:00+00:00",
        "metvlc_time_source": "date+time",
        "metvlc_has_real_time": true,
        "metvlc_captura_utc": "2026-09-17T18:14:25+00:00",
        "metvlc_last_seen_utc": "2026-09-18T09:47:08+00:00",
        "metvlc_fuente": "SIGIF/GVA Rayos 24h KMZ"
      },
      "geometry": {
        "type": "Point",
        "coordinates": [
          -1.3129,
          38.9492
        ]
      }
    },
    {
      "type": "Feature",
      "properties": {
        "name": "17/09/2026 15:08:28",
        "COORD": "0,0325,38,796",
        "DATE": "2026-09-17",
        "TIME": "15:08",
        "MXI": "33,38 kA.",
        "STR": "0",
        "SMA": "0,343 Km.",
        "SMI": "0,14799997 Km.",
        "CHI": "0,4",
        "metvlc_time_utc": "2026-09-17T13:08:00+00:00",
        "metvlc_time_source": "date+time",
        "metvlc_has_real_time": true,
        "metvlc_captura_utc": "2026-09-17T18:14:25+00:00",
        "metvlc_last_seen_utc": "2026-09-18T09:47:08+00:00",
        "metvlc_fuente": "SIGIF/GVA Rayos 24h KMZ"
      },
      "geometry": {
        "type": "Point",
        "coordinates": [
          0.0325,
          38.796
        ]
      }
    },
    {
      "type": "Feature",
      "properties": {
        "name": "17/09/2026 15:13:45",
        "COORD": "-0,0292,38,8601",
        "DATE": "2026-09-17",
        "TIME": "15:13",
        "MXI": "-12,1 kA.",
        "STR": "0",
        "SMA": "0,224 Km.",
        "SMI": "0,12300002 Km.",
        "CHI": "0,4",
        "metvlc_time_utc": "2026-09-17T13:13:00+00:00",
        "metvlc_time_source": "date+time",
        "metvlc_has_real_time": true,
        "metvlc_captura_utc": "2026-09-17T18:14:25+00:00",
        "metvlc_last_seen_utc": "2026-09-18T09:47:08+00:00",
        "metvlc_fuente": "SIGIF/GVA Rayos 24h KMZ"
      },
      "geometry": {
        "type": "Point",
        "coordinates": [
          -0.0292,
          38.8601
        ]
      }
    },
    {
      "type": "Feature",
      "properties": {
        "name": "17/09/2026 15:18:56",
        "COORD": "0,0428,38,6898",
        "DATE": "2026-09-17",
        "TIME": "15:18",
        "MXI": "-35,33 kA.",
        "STR": "0",
        "SMA": "0,606 Km.",
        "SMI": "0,20899996 Km.",
        "CHI": "2,1",
        "metvlc_time_utc": "2026-09-17T13:18:00+00:00",
        "metvlc_time_source": "date+time",
        "metvlc_has_real_time": true,
        "metvlc_captura_utc": "2026-09-17T18:14:25+00:00",
        "metvlc_last_seen_utc": "2026-09-18T09:47:08+00:00",
        "metvlc_fuente": "SIGIF/GVA Rayos 24h KMZ"
      },
      "geometry": {
        "type": "Point",
        "coordinates": [
          0.0428,
          38.6898
        ]
      }
    },
    {
      "type": "Feature",
      "properties": {
        "name": "17/09/2026 15:23:45",
        "COORD": "-0,0689,39,1195",
        "DATE": "2026-09-17",
        "TIME": "15:23",
        "MXI": "-13,25 kA.",
        "STR": "0",
        "SMA": "3,768 Km.",
        "SMI": "0,53800005 Km.",
        "CHI": "0",
        "metvlc_time_utc": "2026-09-17T13:23:00+00:00",
        "metvlc_time_source": "date+time",
        "metvlc_has_real_time": true,
        "metvlc_captura_utc": "2026-09-17T18:14:25+00:00",
        "metvlc_last_seen_utc": "2026-09-18T09:47:08+00:00",
        "metvlc_fuente": "SIGIF/GVA Rayos 24h KMZ"
      },
      "geometry": {
        "type": "Point",
        "coordinates": [
          -0.0689,
          39.1195
        ]
      }
    },
    {
      "type": "Feature",
      "properties": {
        "name": "17/09/2026 15:31:20",
        "COORD": "0,0081,38,7649",
        "DATE": "2026-09-17",
        "TIME": "15:31",
        "MXI": "35,76 kA.",
        "STR": "0",
        "SMA": "0,33 Km.",
        "SMI": "0,148 Km.",
        "CHI": "0,9",
        "metvlc_time_utc": "2026-09-17T13:31:00+00:00",
        "metvlc_time_source": "date+time",
        "metvlc_has_real_time": true,
        "metvlc_captura_utc": "2026-09-17T18:14:25+00:00",
        "metvlc_last_seen_utc": "2026-09-18T09:47:08+00:00",
        "metvlc_fuente": "SIGIF/GVA Rayos 24h KMZ"
      },
      "geometry": {
        "type": "Point",
        "coordinates": [
          0.0081,
          38.7649
        ]
      }
    },
    {
      "type": "Feature",
      "properties": {
        "name": "17/09/2026 15:31:20",
        "COORD": "0,0192,38,7628",
        "DATE": "2026-09-17",
        "TIME": "15:31",
        "MXI": "25,72 kA.",
        "STR": "0",
        "SMA": "0,465 Km.",
        "SMI": "0,14900002 Km.",
        "CHI": "0,7",
        "metvlc_time_utc": "2026-09-17T13:31:00+00:00",
        "metvlc_time_source": "date+time",
        "metvlc_has_real_time": true,
        "metvlc_captura_utc": "2026-09-17T18:14:25+00:00",
        "metvlc_last_seen_utc": "2026-09-18T09:47:08+00:00",
        "metvlc_fuente": "SIGIF/GVA Rayos 24h KMZ"
      },
      "geometry": {
        "type": "Point",
        "coordinates": [
          0.0192,
          38.7628
        ]
      }
    },
    {
      "type": "Feature",
      "properties": {
        "name": "17/09/2026 15:33:01",
        "COORD": "0,0067,38,7693",
        "DATE": "2026-09-17",
        "TIME": "15:33",
        "MXI": "26,96 kA.",
        "STR": "0",
        "SMA": "0,257 Km.",
        "SMI": "0,13799998 Km.",
        "CHI": "0,5",
        "metvlc_time_utc": "2026-09-17T13:33:00+00:00",
        "metvlc_time_source": "date+time",
        "metvlc_has_real_time": true,
        "metvlc_captura_utc": "2026-09-17T18:14:25+00:00",
        "metvlc_last_seen_utc": "2026-09-18T09:47:08+00:00",
        "metvlc_fuente": "SIGIF/GVA Rayos 24h KMZ"
      },
      "geometry": {
        "type": "Point",
        "coordinates": [
          0.0067,
          38.7693
        ]
      }
    },
    {
      "type": "Feature",
      "properties": {
        "name": "17/09/2026 15:37:31",
        "COORD": "0,0264,38,7683",
        "DATE": "2026-09-17",
        "TIME": "15:37",
        "MXI": "28,38 kA.",
        "STR": "0",
        "SMA": "0,27 Km.",
        "SMI": "0,15600002 Km.",
        "CHI": "1,2",
        "metvlc_time_utc": "2026-09-17T13:37:00+00:00",
        "metvlc_time_source": "date+time",
        "metvlc_has_real_time": true,
        "metvlc_captura_utc": "2026-09-17T18:14:25+00:00",
        "metvlc_last_seen_utc": "2026-09-18T09:47:08+00:00",
        "metvlc_fuente": "SIGIF/GVA Rayos 24h KMZ"
      },
      "geometry": {
        "type": "Point",
        "coordinates": [
          0.0264,
          38.7683
        ]
      }
    },
    {
      "type": "Feature",
      "properties": {
        "name": "17/09/2026 15:37:31",
        "COORD": "0,0195,38,7684",
        "DATE": "2026-09-17",
        "TIME": "15:37",
        "MXI": "29,24 kA.",
        "STR": "0",
        "SMA": "0,594 Km.",
        "SMI": "0,172 Km.",
        "CHI": "0,6",
        "metvlc_time_utc": "2026-09-17T13:37:00+00:00",
        "metvlc_time_source": "date+time",
        "metvlc_has_real_time": true,
        "metvlc_captura_utc": "2026-09-17T18:14:25+00:00",
        "metvlc_last_seen_utc": "2026-09-18T09:47:08+00:00",
        "metvlc_fuente": "SIGIF/GVA Rayos 24h KMZ"
      },
      "geometry": {
        "type": "Point",
        "coordinates": [
          0.0195,
          38.7684
        ]
      }
    },
    {
      "type": "Feature",
      "properties": {
        "name": "17/09/2026 15:38:52",
        "COORD": "0,0346,38,7618",
        "DATE": "2026-09-17",
        "TIME": "15:38",
        "MXI": "36,88 kA.",
        "STR": "0",
        "SMA": "0,309 Km.",
        "SMI": "0,18300006 Km.",
        "CHI": "1",
        "metvlc_time_utc": "2026-09-17T13:38:00+00:00",
        "metvlc_time_source": "date+time",
        "metvlc_has_real_time": true,
        "metvlc_captura_utc": "2026-09-17T18:14:25+00:00",
        "metvlc_last_seen_utc": "2026-09-18T09:47:08+00:00",
        "metvlc_fuente": "SIGIF/GVA Rayos 24h KMZ"
      },
      "geometry": {
        "type": "Point",
        "coordinates": [
          0.0346,
          38.7618
        ]
      }
    },
    {
      "type": "Feature",
      "properties": {
        "name": "17/09/2026 15:38:52",
        "COORD": "0,0351,38,7637",
        "DATE": "2026-09-17",
        "TIME": "15:38",
        "MXI": "15,51 kA.",
        "STR": "0",
        "SMA": "0,28 Km.",
        "SMI": "0,15900002 Km.",
        "CHI": "0,5",
        "metvlc_time_utc": "2026-09-17T13:38:00+00:00",
        "metvlc_time_source": "date+time",
        "metvlc_has_real_time": true,
        "metvlc_captura_utc": "2026-09-17T18:14:25+00:00",
        "metvlc_last_seen_utc": "2026-09-18T09:47:08+00:00",
        "metvlc_fuente": "SIGIF/GVA Rayos 24h KMZ"
      },
      "geometry": {
        "type": "Point",
        "coordinates": [
          0.0351,
          38.7637
        ]
      }
    },
    {
      "type": "Feature",
      "properties": {
        "name": "17/09/2026 15:42:34",
        "COORD": "0,0168,38,7592",
        "DATE": "2026-09-17",
        "TIME": "15:42",
        "MXI": "42,46 kA.",
        "STR": "0",
        "SMA": "0,215 Km.",
        "SMI": "0,13399997 Km.",
        "CHI": "0,5",
        "metvlc_time_utc": "2026-09-17T13:42:00+00:00",
        "metvlc_time_source": "date+time",
        "metvlc_has_real_time": true,
        "metvlc_captura_utc": "2026-09-17T18:14:25+00:00",
        "metvlc_last_seen_utc": "2026-09-18T09:47:08+00:00",
        "metvlc_fuente": "SIGIF/GVA Rayos 24h KMZ"
      },
      "geometry": {
        "type": "Point",
        "coordinates": [
          0.0168,
          38.7592
        ]
      }
    },
    {
      "type": "Feature",
      "properties": {
        "name": "17/09/2026 15:50:04",
        "COORD": "-1,0715,38,9126",
        "DATE": "2026-09-17",
        "TIME": "15:50",
        "MXI": "-10,74 kA.",
        "STR": "0",
        "SMA": "0,2 Km.",
        "SMI": "0,161 Km.",
        "CHI": "0,3",
        "metvlc_time_utc": "2026-09-17T13:50:00+00:00",
        "metvlc_time_source": "date+time",
        "metvlc_has_real_time": true,
        "metvlc_captura_utc": "2026-09-17T18:14:25+00:00",
        "metvlc_last_seen_utc": "2026-09-18T09:47:08+00:00",
        "metvlc_fuente": "SIGIF/GVA Rayos 24h KMZ"
      },
      "geometry": {
        "type": "Point",
        "coordinates": [
          -1.0715,
          38.9126
        ]
      }
    },
    {
      "type": "Feature",
      "properties": {
        "name": "18/09/2026 14:28:29",
        "COORD": "-0,458,38,6162",
        "DATE": "2026-09-18",
        "TIME": "14:28",
        "MXI": "-23,46 kA.",
        "STR": "0",
        "SMA": "0,2 Km.",
        "SMI": "0,13300003 Km.",
        "CHI": "0,3",
        "metvlc_time_utc": "2026-09-18T12:28:00+00:00",
        "metvlc_time_source": "date+time",
        "metvlc_has_real_time": true,
        "metvlc_captura_utc": "2026-09-18T17:41:29+00:00",
        "metvlc_last_seen_utc": "2026-09-19T09:32:41+00:00",
        "metvlc_fuente": "SIGIF/GVA Rayos 24h KMZ"
      },
      "geometry": {
        "type": "Point",
        "coordinates": [
          -0.458,
          38.6162
        ]
      }
    },
    {
      "type": "Feature",
      "properties": {
        "name": "18/09/2026 14:43:20",
        "COORD": "-0,4653,38,6064",
        "DATE": "2026-09-18",
        "TIME": "14:43",
        "MXI": "-17,14 kA.",
        "STR": "0",
        "SMA": "0,212 Km.",
        "SMI": "0,13600005 Km.",
        "CHI": "0,3",
        "metvlc_time_utc": "2026-09-18T12:43:00+00:00",
        "metvlc_time_source": "date+time",
        "metvlc_has_real_time": true,
        "metvlc_captura_utc": "2026-09-18T17:41:29+00:00",
        "metvlc_last_seen_utc": "2026-09-19T09:32:41+00:00",
        "metvlc_fuente": "SIGIF/GVA Rayos 24h KMZ"
      },
      "geometry": {
        "type": "Point",
        "coordinates": [
          -0.4653,
          38.6064
        ]
      }
    },
    {
      "type": "Feature",
      "properties": {
        "name": "18/09/2026 14:43:20",
        "COORD": "-0,4642,38,6059",
        "DATE": "2026-09-18",
        "TIME": "14:43",
        "MXI": "-7,57 kA.",
        "STR": "0",
        "SMA": "0,266 Km.",
        "SMI": "0,20900005 Km.",
        "CHI": "0,1",
        "metvlc_time_utc": "2026-09-18T12:43:00+00:00",
        "metvlc_time_source": "date+time",
        "metvlc_has_real_time": true,
        "metvlc_captura_utc": "2026-09-18T17:41:29+00:00",
        "metvlc_last_seen_utc": "2026-09-19T09:32:41+00:00",
        "metvlc_fuente": "SIGIF/GVA Rayos 24h KMZ"
      },
      "geometry": {
        "type": "Point",
        "coordinates": [
          -0.4642,
          38.6059
        ]
      }
    },
    {
      "type": "Feature",
      "properties": {
        "name": "18/09/2026 15:27:38",
        "COORD": "-1,6575,40,1142",
        "DATE": "2026-09-18",
        "TIME": "15:27",
        "MXI": "-26,84 kA.",
        "STR": "0",
        "SMA": "0,147 Km.",
        "SMI": "0,129 Km.",
        "CHI": "0,5",
        "metvlc_time_utc": "2026-09-18T13:27:00+00:00",
        "metvlc_time_source": "date+time",
        "metvlc_has_real_time": true,
        "metvlc_captura_utc": "2026-09-18T17:41:29+00:00",
        "metvlc_last_seen_utc": "2026-09-19T09:32:41+00:00",
        "metvlc_fuente": "SIGIF/GVA Rayos 24h KMZ"
      },
      "geometry": {
        "type": "Point",
        "coordinates": [
          -1.6575,
          40.1142
        ]
      }
    },
    {
      "type": "Feature",
      "properties": {
        "name": "18/09/2026 16:24:16",
        "COORD": "-0,9674,38,6028",
        "DATE": "2026-09-18",
        "TIME": "16:24",
        "MXI": "-18,49 kA.",
        "STR": "0",
        "SMA": "0,18 Km.",
        "SMI": "0,12699999 Km.",
        "CHI": "0,5",
        "metvlc_time_utc": "2026-09-18T14:24:00+00:00",
        "metvlc_time_source": "date+time",
        "metvlc_has_real_time": true,
        "metvlc_captura_utc": "2026-09-18T17:41:29+00:00",
        "metvlc_last_seen_utc": "2026-09-19T09:32:41+00:00",
        "metvlc_fuente": "SIGIF/GVA Rayos 24h KMZ"
      },
      "geometry": {
        "type": "Point",
        "coordinates": [
          -0.9674,
          38.6028
        ]
      }
    },
    {
      "type": "Feature",
      "properties": {
        "name": "18/09/2026 16:27:24",
        "COORD": "-0,9402,38,6118",
        "DATE": "2026-09-18",
        "TIME": "16:27",
        "MXI": "-17,47 kA.",
        "STR": "0",
        "SMA": "0,177 Km.",
        "SMI": "0,12099999 Km.",
        "CHI": "0,6",
        "metvlc_time_utc": "2026-09-18T14:27:00+00:00",
        "metvlc_time_source": "date+time",
        "metvlc_has_real_time": true,
        "metvlc_captura_utc": "2026-09-18T17:41:29+00:00",
        "metvlc_last_seen_utc": "2026-09-19T09:32:41+00:00",
        "metvlc_fuente": "SIGIF/GVA Rayos 24h KMZ"
      },
      "geometry": {
        "type": "Point",
        "coordinates": [
          -0.9402,
          38.6118
        ]
      }
    },
    {
      "type": "Feature",
      "properties": {
        "name": "18/09/2026 16:27:24",
        "COORD": "-0,9599,38,6316",
        "DATE": "2026-09-18",
        "TIME": "16:27",
        "MXI": "-9,43 kA.",
        "STR": "0",
        "SMA": "0,245 Km.",
        "SMI": "0,16199997 Km.",
        "CHI": "0,9",
        "metvlc_time_utc": "2026-09-18T14:27:00+00:00",
        "metvlc_time_source": "date+time",
        "metvlc_has_real_time": true,
        "metvlc_captura_utc": "2026-09-18T17:41:29+00:00",
        "metvlc_last_seen_utc": "2026-09-19T09:32:41+00:00",
        "metvlc_fuente": "SIGIF/GVA Rayos 24h KMZ"
      },
      "geometry": {
        "type": "Point",
        "coordinates": [
          -0.9599,
          38.6316
        ]
      }
    },
    {
      "type": "Feature",
      "properties": {
        "name": "18/09/2026 16:32:59",
        "COORD": "-0,8528,38,7818",
        "DATE": "2026-09-18",
        "TIME": "16:32",
        "MXI": "-30,93 kA.",
        "STR": "0",
        "SMA": "0,75 Km.",
        "SMI": "0,195 Km.",
        "CHI": "1,7",
        "metvlc_time_utc": "2026-09-18T14:32:00+00:00",
        "metvlc_time_source": "date+time",
        "metvlc_has_real_time": true,
        "metvlc_captura_utc": "2026-09-18T17:41:29+00:00",
        "metvlc_last_seen_utc": "2026-09-19T09:32:41+00:00",
        "metvlc_fuente": "SIGIF/GVA Rayos 24h KMZ"
      },
      "geometry": {
        "type": "Point",
        "coordinates": [
          -0.8528,
          38.7818
        ]
      }
    },
    {
      "type": "Feature",
      "properties": {
        "name": "18/09/2026 16:32:59",
        "COORD": "-0,9325,38,6",
        "DATE": "2026-09-18",
        "TIME": "16:32",
        "MXI": "-9,04 kA.",
        "STR": "0",
        "SMA": "0,241 Km.",
        "SMI": "0,15599997 Km.",
        "CHI": "0,6",
        "metvlc_time_utc": "2026-09-18T14:32:00+00:00",
        "metvlc_time_source": "date+time",
        "metvlc_has_real_time": true,
        "metvlc_captura_utc": "2026-09-18T17:41:29+00:00",
        "metvlc_last_seen_utc": "2026-09-19T09:32:41+00:00",
        "metvlc_fuente": "SIGIF/GVA Rayos 24h KMZ"
      },
      "geometry": {
        "type": "Point",
        "coordinates": [
          -0.9325,
          38.6
        ]
      }
    },
    {
      "type": "Feature",
      "properties": {
        "name": "19/09/2026 11:15:12",
        "COORD": "0,0213,38,9117",
        "DATE": "2026-09-19",
        "TIME": "11:15",
        "MXI": "-9,83 kA.",
        "STR": "0",
        "SMA": "0,241 Km.",
        "SMI": "0,15900002 Km.",
        "CHI": "0,2",
        "metvlc_time_utc": "2026-09-19T09:15:00+00:00",
        "metvlc_time_source": "date+time",
        "metvlc_has_real_time": true,
        "metvlc_captura_utc": "2026-09-19T09:32:41+00:00",
        "metvlc_last_seen_utc": "2026-09-19T17:17:19+00:00",
        "metvlc_fuente": "SIGIF/GVA Rayos 24h KMZ"
      },
      "geometry": {
        "type": "Point",
        "coordinates": [
          0.0213,
          38.9117
        ]
      }
    }
  ]
}